{"type": "FeatureCollection", "features": [{"type": "Feature", "properties": {"norad_id": 49537, "name": "COSMOS 1408 DEB", "group": "cosmos-1408-debris", "lat": -27.13929124429794, "lon": -68.67951880495, "alt_km": 201.6514760704522, "timestamp": "2025-12-01T03:58:50.211317+00:00", "meta": {"OBJECT_NAME": "COSMOS 1408 DEB", "OBJECT_ID": "1982-092AA", "EPOCH": "2025-11-30T13:50:53.595744", "MEAN_MOTION": 16.25613918, "ECCENTRICITY": 0.00139118, "INCLINATION": 82.512, "RA_OF_ASC_NODE": 108.1395, "ARG_OF_PERICENTER": 305.4243, "MEAN_ANOMALY": 54.5748, "EPHEMERIS_TYPE": 0, "CLASSIFICATION_TYPE": "U", "NORAD_CAT_ID": 49537, "ELEMENT_SET_NO": 999, "REV_AT_EPOCH": 22389, "BSTAR": 0.00099995053, "MEAN_MOTION_DOT": 0.03014048, "MEAN_MOTION_DDOT": -1.222266e-06, "GROUP": "cosmos-1408-debris"}, "tle": {"line1": "1 49537U 82092AA  25334.57700921  .03014048 -12223-5  99995-3 0  9997", "line2": "2 49537  82.5120 108.1395 0013911 305.4243  54.5748 16.25613918223890"}}, "geometry": {"type": "Point", "coordinates": [-68.67951880495, -27.13929124429794]}}, {"type": "Feature", "properties": {"norad_id": 50032, "name": "COSMOS 1408 DEB", "group": "cosmos-1408-debris", "lat": -29.613658278196453, "lon": -105.37463363562459, "alt_km": 428.812864026042, "timestamp": "2025-12-01T03:58:50.211345+00:00", "meta": {"OBJECT_NAME": "COSMOS 1408 DEB", "OBJECT_ID": "1982-092RU", "EPOCH": "2025-11-30T17:45:03.777984", "MEAN_MOTION": 15.45503898, "ECCENTRICITY": 0.0014594, "INCLINATION": 82.5643, "RA_OF_ASC_NODE": 70.8048, "ARG_OF_PERICENTER": 255.7531, "MEAN_ANOMALY": 104.2097, "EPHEMERIS_TYPE": 0, "CLASSIFICATION_TYPE": "U", "NORAD_CAT_ID": 50032, "ELEMENT_SET_NO": 999, "REV_AT_EPOCH": 22418, "BSTAR": 0.00012154, "MEAN_MOTION_DOT": 5.89e-05, "MEAN_MOTION_DDOT": 0, "GROUP": "cosmos-1408-debris"}, "tle": {"line1": "1 50032U 82092RU  25334.73962706  .00005890  00000+0  12154-3 0  9995", "line2": "2 50032  82.5643  70.8048 0014594 255.7531 104.2097 15.45503898224186"}}, "geometry": {"type": "Point", "coordinates": [-105.37463363562459, -29.613658278196453]}}, {"type": "Feature", "properties": {"norad_id": 50058, "name": "COSMOS 1408 DEB", "group": "cosmos-1408-debris", "lat": 23.204082207348666, "lon": 84.63248349326292, "alt_km": 383.43731656096315, "timestamp": "2025-12-01T03:58:50.211360+00:00", "meta": {"OBJECT_NAME": "COSMOS 1408 DEB", "OBJECT_ID": "1982-092SW", "EPOCH": "2025-11-30T18:39:42.194016", "MEAN_MOTION": 15.63043933, "ECCENTRICITY": 0.0016342, "INCLINATION": 82.6124, "RA_OF_ASC_NODE": 81.8497, "ARG_OF_PERICENTER": 141.6588, "MEAN_ANOMALY": 218.5835, "EPHEMERIS_TYPE": 0, "CLASSIFICATION_TYPE": "U", "NORAD_CAT_ID": 50058, "ELEMENT_SET_NO": 999, "REV_AT_EPOCH": 22617, "BSTAR": 0.00038628, "MEAN_MOTION_DOT": 0.00035428, "MEAN_MOTION_DDOT": 0, "GROUP": "cosmos-1408-debris"}, "tle": {"line1": "1 50058U 82092SW  25334.77757169  .00035428  00000+0  38628-3 0  9996", "line2": "2 50058  82.6124  81.8497 0016342 141.6588 218.5835 15.63043933226176"}}, "geometry": {"type": "Point", "coordinates": [84.63248349326292, 23.204082207348666]}}, {"type": "Feature", "properties": {"norad_id": 50404, "name": "COSMOS 1408 DEB", "group": "cosmos-1408-debris", "lat": 81.08391167044988, "lon": -13.941547523914332, "alt_km": 623.9802459879047, "timestamp": "2025-12-01T03:58:50.211374+00:00", "meta": {"OBJECT_NAME": "COSMOS 1408 DEB", "OBJECT_ID": "1982-092ADS", "EPOCH": "2025-11-30T18:01:04.622016", "MEAN_MOTION": 15.11341858, "ECCENTRICITY": 0.017765, "INCLINATION": 82.2072, "RA_OF_ASC_NODE": 227.2837, "ARG_OF_PERICENTER": 240.5069, "MEAN_ANOMALY": 117.8342, "EPHEMERIS_TYPE": 0, "CLASSIFICATION_TYPE": "U", "NORAD_CAT_ID": 50404, "ELEMENT_SET_NO": 999, "REV_AT_EPOCH": 21012, "BSTAR": 0.0028716, "MEAN_MOTION_DOT": 0.0007156, "MEAN_MOTION_DDOT": 0, "GROUP": "cosmos-1408-debris"}, "tle": {"line1": "1 50404U 82092ADS 25334.75074794  .00071560  00000+0  28716-2 0  9998", "line2": "2 50404  82.2072 227.2837 0177650 240.5069 117.8342 15.11341858210128"}}, "geometry": {"type": "Point", "coordinates": [-13.941547523914332, 81.08391167044988]}}, {"type": "Feature", "properties": {"norad_id": 50621, "name": "COSMOS 1408 DEB", "group": "cosmos-1408-debris", "lat": -12.82804911848468, "lon": 84.51658929391014, "alt_km": 421.93136499728735, "timestamp": "2025-12-01T03:58:50.211387+00:00", "meta": {"OBJECT_NAME": "COSMOS 1408 DEB", "OBJECT_ID": "1982-092ALR", "EPOCH": "2025-11-30T18:46:27.062688", "MEAN_MOTION": 15.55723111, "ECCENTRICITY": 0.0028896, "INCLINATION": 82.5696, "RA_OF_ASC_NODE": 86.6184, "ARG_OF_PERICENTER": 196.427, "MEAN_ANOMALY": 163.6052, "EPHEMERIS_TYPE": 0, "CLASSIFICATION_TYPE": "U", "NORAD_CAT_ID": 50621, "ELEMENT_SET_NO": 999, "REV_AT_EPOCH": 22064, "BSTAR": 0.00042675, "MEAN_MOTION_DOT": 0.00030027, "MEAN_MOTION_DDOT": 0, "GROUP": "cosmos-1408-debris"}, "tle": {"line1": "1 50621U 82092ALR 25334.78225767  .00030027  00000+0  42675-3 0  9994", "line2": "2 50621  82.5696  86.6184 0028896 196.4270 163.6052 15.55723111220645"}}, "geometry": {"type": "Point", "coordinates": [84.51658929391014, -12.82804911848468]}}]}